CTC1_L_00561063-01
1 10124U 22303WG  26075.70038194  .00000000  00000+0  00000-0 0  9999
2 10124  98.0000 186.0000 0000000   0.0000  12.0000 14.73473854    12
CTC1_L_00561063-02
1 10125U 22370VO  26075.70038194  .00000000  00000+0  00000-0 0  9994
2 10125  98.0000 186.0000 0000000   0.0000 192.0000 14.73473854    12
CTC1_L_00561064-01
1 10126U 26243ZZ  26075.70038194  .00000000  00000+0  00000-0 0  9998
2 10126  98.0000 189.0000 0000000   0.0000  18.0000 14.73473854    13
CTC1_L_00561064-02
1 10127U 25094AB  26075.70038194  .00000000  00000+0  00000-0 0  9992
2 10127  98.0000 189.0000 0000000   0.0000 198.0000 14.73473854    13
CTC1_L_00561065-01
1 10128U 23873DQ  26075.70038194  .00000000  00000+0  00000-0 0  9996
2 10128  98.0000 192.0000 0000000   0.0000  24.0000 14.73473854    16
CTC1_L_00561065-02
1 10129U 23368PZ  26075.70038194  .00000000  00000+0  00000-0 0  9996
2 10129  98.0000 192.0000 0000000   0.0000 204.0000 14.73473854    17
CTC1_L_00561066-01
1 10130U 22086BZ  26075.70038194  .00000000  00000+0  00000-0 0  9994
2 10130  98.0000 195.0000 0000000   0.0000  30.0000 14.73473854    19
CTC1_L_00561066-02
1 10131U 23435BR  26075.70038194  .00000000  00000+0  00000-0 0  9994
2 10131  98.0000 195.0000 0000000   0.0000 210.0000 14.73473854    10
CTC1_L_00561067-01
1 10132U 25802RI  26075.70038194  .00000000  00000+0  00000-0 0  9995
2 10132  98.0000 198.0000 0000000   0.0000  36.0000 14.73473854    10
CTC1_L_00561067-02
1 10133U 23734KA  26075.70038194  .00000000  00000+0  00000-0 0  9998
2 10133  98.0000 198.0000 0000000   0.0000 216.0000 14.73473854    11
CTC1_L_00561068-01
1 10134U 24331SY  26075.70038194  .00000000  00000+0  00000-0 0  9993
2 10134  98.0000 201.0000 0000000   0.0000  42.0000 14.73473854    14
CTC1_L_00561068-02
1 10135U 22401IX  26075.70038194  .00000000  00000+0  00000-0 0  9990
2 10135  98.0000 201.0000 0000000   0.0000 222.0000 14.73473854    15
CTC1_L_00561069-01
1 10136U 22004BR  26075.70038194  .00000000  00000+0  00000-0 0  9990
2 10136  98.0000 204.0000 0000000   0.0000  48.0000 14.73473854    15
CTC1_L_00561069-02
1 10137U 25792LJ  26075.70038194  .00000000  00000+0  00000-0 0  9998
2 10137  98.0000 204.0000 0000000   0.0000 228.0000 14.73473854    16
CTC1_L_00561070-01
1 10138U 26263ZK  26075.70038194  .00000000  00000+0  00000-0 0  9993
2 10138  98.0000 207.0000 0000000   0.0000  54.0000 14.73473854    17
CTC1_L_00561070-02
1 10139U 22927WB  26075.70038194  .00000000  00000+0  00000-0 0  9997
2 10139  98.0000 207.0000 0000000   0.0000 234.0000 14.73473854    18
CTC1_L_00561071-01
1 10140U 22946IH  26075.70038194  .00000000  00000+0  00000-0 0  9990
2 10140  98.0000 210.0000 0000000   0.0000  60.0000 14.73473854    11
CTC1_L_00561071-02
1 10141U 25281LO  26075.70038194  .00000000  00000+0  00000-0 0  9996
2 10141  98.0000 210.0000 0000000   0.0000 240.0000 14.73473854    12
CTC1_L_00561072-01
1 10142U 22229GL  26075.70038194  .00000000  00000+0  00000-0 0  9996
2 10142  98.0000 213.0000 0000000   0.0000  66.0000 14.73473854    12
CTC1_L_00561072-02
1 10143U 22739TI  26075.70038194  .00000000  00000+0  00000-0 0  9993
2 10143  98.0000 213.0000 0000000   0.0000 246.0000 14.73473854    13
CTC1_L_00561073-01
1 10144U 26456OC  26075.70038194  .00000000  00000+0  00000-0 0  9994
2 10144  98.0000 216.0000 0000000   0.0000  72.0000 14.73473854    14
CTC1_L_00561073-02
1 10145U 25646ZT  26075.70038194  .00000000  00000+0  00000-0 0  9995
2 10145  98.0000 216.0000 0000000   0.0000 252.0000 14.73473854    15
CTC1_L_00561074-01
1 10146U 23574FS  26075.70038194  .00000000  00000+0  00000-0 0  9994
2 10146  98.0000 219.0000 0000000   0.0000  78.0000 14.73473854    15
CTC1_L_00561074-02
1 10147U 26826BG  26075.70038194  .00000000  00000+0  00000-0 0  9998
2 10147  98.0000 219.0000 0000000   0.0000 258.0000 14.73473854    16
CTC1_L_00561075-01
1 10148U 24011LP  26075.70038194  .00000000  00000+0  00000-0 0  9993
2 10148  98.0000 222.0000 0000000   0.0000  84.0000 14.73473854    18
CTC1_L_00561075-02
1 10149U 22322MY  26075.70038194  .00000000  00000+0  00000-0 0  9997
2 10149  98.0000 222.0000 0000000   0.0000 264.0000 14.73473854    19
CTC1_L_00561076-01
1 10150U 26945LA  26075.70038194  .00000000  00000+0  00000-0 0  9994
2 10150  98.0000 225.0000 0000000   0.0000  90.0000 14.73473854    11
CTC1_L_00561076-02
1 10151U 22489EI  26075.70038194  .00000000  00000+0  00000-0 0  9994
2 10151  98.0000 225.0000 0000000   0.0000 270.0000 14.73473854    12
CTC1_L_00561077-01
1 10152U 24707DV  26075.70038194  .00000000  00000+0  00000-0 0  9990
2 10152  98.0000 228.0000 0000000   0.0000  96.0000 14.73473854    12
CTC1_L_00561077-02
1 10153U 26489QL  26075.70038194  .00000000  00000+0  00000-0 0  9990
2 10153  98.0000 228.0000 0000000   0.0000 276.0000 14.73473854    13
CTC1_L_00561078-01
1 10154U 25935KJ  26075.70038194  .00000000  00000+0  00000-0 0  9996
2 10154  98.0000 231.0000 0000000   0.0000 102.0000 14.73473854    16
CTC1_L_00561078-02
1 10155U 22409UU  26075.70038194  .00000000  00000+0  00000-0 0  9990
2 10155  98.0000 231.0000 0000000   0.0000 282.0000 14.73473854    16
CTC1_L_00561079-01
1 10156U 22973KH  26075.70038194  .00000000  00000+0  00000-0 0  9997
2 10156  98.0000 234.0000 0000000   0.0000 108.0000 14.73473854    17
CTC1_L_00561079-02
1 10157U 24661KU  26075.70038194  .00000000  00000+0  00000-0 0  9994
2 10157  98.0000 234.0000 0000000   0.0000 288.0000 14.73473854    17
CTC1_L_00561080-01
1 10158U 25535FF  26075.70038194  .00000000  00000+0  00000-0 0  9996
2 10158  98.0000 237.0000 0000000   0.0000 114.0000 14.73473854    19
CTC1_L_00561080-02
1 10159U 26078GG  26075.70038194  .00000000  00000+0  00000-0 0  9990
2 10159  98.0000 237.0000 0000000   0.0000 294.0000 14.73473854    19
CTC1_L_00561081-01
1 10160U 23268LJ  26075.70038194  .00000000  00000+0  00000-0 0  9990
2 10160  98.0000 240.0000 0000000   0.0000 120.0000 14.73473854    13
CTC1_L_00561081-02
1 10161U 24291BV  26075.70038194  .00000000  00000+0  00000-0 0  9998
2 10161  98.0000 240.0000 0000000   0.0000 300.0000 14.73473854    14
CTC1_L_00561082-01
1 10162U 22831DV  26075.70038194  .00000000  00000+0  00000-0 0  9997
2 10162  98.0000 243.0000 0000000   0.0000 126.0000 14.73473854    14
CTC1_L_00561082-02
1 10163U 24821E   26075.70038194  .00000000  00000+0  00000-0 0  9999
2 10163  98.0000 243.0000 0000000   0.0000 306.0000 14.73473854    15
CTC1_L_00561083-01
1 10164U 22803RK  26075.70038194  .00000000  00000+0  00000-0 0  9998
2 10164  98.0000 246.0000 0000000   0.0000 132.0000 14.73473854    16
CTC1_L_00561083-02
1 10165U 25538YE  26075.70038194  .00000000  00000+0  00000-0 0  9997
2 10165  98.0000 246.0000 0000000   0.0000 312.0000 14.73473854    17
CTC1_L_00561084-01
1 10166U 26420PJ  26075.70038194  .00000000  00000+0  00000-0 0  9999
2 10166  98.0000 249.0000 0000000   0.0000 138.0000 14.73473854    17
CTC1_L_00561084-02
1 10167U 22548DA  26075.70038194  .00000000  00000+0  00000-0 0  9997
2 10167  98.0000 249.0000 0000000   0.0000 318.0000 14.73473854    18
CTC1_L_00561085-01
1 10168U 23074DS  26075.70038194  .00000000  00000+0  00000-0 0  9993
2 10168  98.0000 252.0000 0000000   0.0000 144.0000 14.73473854    10
CTC1_L_00561085-02
1 10169U 23788GU  26075.70038194  .00000000  00000+0  00000-0 0  9996
2 10169  98.0000 252.0000 0000000   0.0000 324.0000 14.73473854    11
CTC1_L_00561086-01
1 10170U 26659PW  26075.70038194  .00000000  00000+0  00000-0 0  9998
2 10170  98.0000 255.0000 0000000   0.0000 150.0000 14.73473854    13
CTC1_L_00561086-02
1 10171U 26498AK  26075.70038194  .00000000  00000+0  00000-0 0  9990
2 10171  98.0000 255.0000 0000000   0.0000 330.0000 14.73473854    14
CTC1_L_00561087-01
1 10172U 23217GK  26075.70038194  .00000000  00000+0  00000-0 0  9997
2 10172  98.0000 258.0000 0000000   0.0000 156.0000 14.73473854    14
CTC1_L_00561087-02
1 10173U 23202QG  26075.70038194  .00000000  00000+0  00000-0 0  9992
2 10173  98.0000 258.0000 0000000   0.0000 336.0000 14.73473854    15
CTC1_L_00561088-01
1 10174U 26620HZ  26075.70038194  .00000000  00000+0  00000-0 0  9990
2 10174  98.0000 261.0000 0000000   0.0000 162.0000 14.73473854    17
CTC1_L_00561088-02
1 10175U 23420PR  26075.70038194  .00000000  00000+0  00000-0 0  9996
2 10175  98.0000 261.0000 0000000   0.0000 342.0000 14.73473854    18
CTC1_L_00561089-01
1 10176U 26623GV  26075.70038194  .00000000  00000+0  00000-0 0  9995
2 10176  98.0000 264.0000 0000000   0.0000 168.0000 14.73473854    18
CTC1_L_00561089-02
1 10177U 24619YY  26075.70038194  .00000000  00000+0  00000-0 0  9999
2 10177  98.0000 264.0000 0000000   0.0000 348.0000 14.73473854    19
CTC1_L_00561090-01
1 10178U 26886YZ  26075.70038194  .00000000  00000+0  00000-0 0  9998
2 10178  98.0000 267.0000 0000000   0.0000 174.0000 14.73473854    10
CTC1_L_00561090-02
1 10179U 22670RY  26075.70038194  .00000000  00000+0  00000-0 0  9996
2 10179  98.0000 267.0000 0000000   0.0000 354.0000 14.73473854    11
CTC1_L_00561091-01
1 10180U 22289MH  26075.70038194  .00000000  00000+0  00000-0 0  9994
2 10180  98.0000 270.0000 0000000   0.0000 180.0000 14.73473854    14
CTC1_L_00561091-02
1 10181U 25547OT  26075.70038194  .00000000  00000+0  00000-0 0  9995
2 10181  98.0000 270.0000 0000000   0.0000   0.0000 14.73473854    16
CTC1_L_00561092-01
1 10182U 22783WB  26075.70038194  .00000000  00000+0  00000-0 0  9995
2 10182  98.0000 273.0000 0000000   0.0000 186.0000 14.73473854    15
CTC1_L_00561092-02
1 10183U 26595LQ  26075.70038194  .00000000  00000+0  00000-0 0  9991
2 10183  98.0000 273.0000 0000000   0.0000   6.0000 14.73473854    17
CTC1_L_00561093-01
1 10184U 26606LQ  26075.70038194  .00000000  00000+0  00000-0 0  9995
2 10184  98.0000 276.0000 0000000   0.0000 192.0000 14.73473854    17
CTC1_L_00561093-02
1 10185U 25922AM  26075.70038194  .00000000  00000+0  00000-0 0  9996
2 10185  98.0000 276.0000 0000000   0.0000  12.0000 14.73473854    19
